[{"OBJECT_NAME":"POLYITAN-1","OBJECT_ID":"2014-033AJ","EPOCH":"2026-03-09T22:27:50.258304","MEAN_MOTION":15.29568085,"ECCENTRICITY":0.00093607,"INCLINATION":98.1053,"RA_OF_ASC_NODE":86.0432,"ARG_OF_PERICENTER":127.248,"MEAN_ANOMALY":232.9614,"EPHEMERIS_TYPE":0,"CLASSIFICATION_TYPE":"U","NORAD_CAT_ID":40042,"ELEMENT_SET_NO":999,"REV_AT_EPOCH":63840,"BSTAR":0.00083772474,"MEAN_MOTION_DOT":0.00024003,"MEAN_MOTION_DDOT":0},{"OBJECT_NAME":"STARLINK-30501","OBJECT_ID":"2023-147E","EPOCH":"2026-03-09T22:00:01.999584","MEAN_MOTION":15.26782053,"ECCENTRICITY":0.00024337,"INCLINATION":43.0008,"RA_OF_ASC_NODE":323.7294,"ARG_OF_PERICENTER":278.1889,"MEAN_ANOMALY":131.7473,"EPHEMERIS_TYPE":0,"CLASSIFICATION_TYPE":"U","NORAD_CAT_ID":57917,"ELEMENT_SET_NO":999,"REV_AT_EPOCH":578,"BSTAR":0.00027530446,"MEAN_MOTION_DOT":7.141e-5,"MEAN_MOTION_DDOT":0}]
